{
  "type": "FeatureCollection",
  "features": [
    {
      "type": "Feature",
      "properties": {
        "norad_id": 30118,
        "name": "FENGYUN 1C DEB",
        "group": "fengyun-1c-debris",
        "lat": 46.383581867531056,
        "lon": -16.895058166455232,
        "alt_km": 810.5206394985598,
        "timestamp": "2025-12-14T18:52:55.777277+00:00",
        "meta_object_name": "FENGYUN 1C DEB",
        "meta_object_id": "1999-025RX",
        "meta_epoch": "2025-12-14T00:07:11.618112",
        "meta_mean_motion": 14.05123871,
        "meta_eccentricity": 0.00853366,
        "meta_inclination": 98.8034,
        "meta_ra_of_asc_node": 351.7062,
        "meta_arg_of_pericenter": 56.3088,
        "meta_mean_anomaly": 358.6835,
        "meta_ephemeris_type": 0,
        "meta_classification_type": "U",
        "meta_norad_cat_id": 30118,
        "meta_element_set_no": 999,
        "meta_rev_at_epoch": 96949,
        "meta_bstar": 9.3669402e-05,
        "meta_mean_motion_dot": 1.14e-06,
        "meta_mean_motion_ddot": 0,
        "tle_line1": "1 30118U 99025RX  25348.00499558  .00000114  00000+0  93669-4 0  9992",
        "tle_line2": "2 30118  98.8034 351.7062 0085336  56.3088 358.6835 14.05123871969493"
      },
      "geometry": {
        "type": "Point",
        "coordinates": [
          -16.895058166455232,
          46.383581867531056
        ]
      }
    },
    {
      "type": "Feature",
      "properties": {
        "norad_id": 30119,
        "name": "FENGYUN 1C DEB",
        "group": "fengyun-1c-debris",
        "lat": 67.91145996677224,
        "lon": -177.38271894602002,
        "alt_km": 905.1920163189161,
        "timestamp": "2025-12-14T18:52:55.777287+00:00",
        "meta_object_name": "FENGYUN 1C DEB",
        "meta_object_id": "1999-025RY",
        "meta_epoch": "2025-12-13T22:13:59.829024",
        "meta_mean_motion": 14.22251587,
        "meta_eccentricity": 0.01310281,
        "meta_inclination": 97.9204,
        "meta_ra_of_asc_node": 341.7817,
        "meta_arg_of_pericenter": 289.3896,
        "meta_mean_anomaly": 98.7048,
        "meta_ephemeris_type": 0,
        "meta_classification_type": "U",
        "meta_norad_cat_id": 30119,
        "meta_element_set_no": 999,
        "meta_rev_at_epoch": 97197,
        "meta_bstar": 0.0019340052,
        "meta_mean_motion_dot": 4.65e-05,
        "meta_mean_motion_ddot": 0,
        "tle_line1": "1 30119U 99025RY  25347.92638691  .00004650  00000+0  19340-2 0  9997",
        "tle_line2": "2 30119  97.9204 341.7817 0131028 289.3896  98.7048 14.22251587971974"
      },
      "geometry": {
        "type": "Point",
        "coordinates": [
          -177.38271894602002,
          67.91145996677224
        ]
      }
    },
    {
      "type": "Feature",
      "properties": {
        "norad_id": 30120,
        "name": "FENGYUN 1C DEB",
        "group": "fengyun-1c-debris",
        "lat": 67.81904048481597,
        "lon": -86.81813345790229,
        "alt_km": 796.8732319404553,
        "timestamp": "2025-12-14T18:52:55.777297+00:00",
        "meta_object_name": "FENGYUN 1C DEB",
        "meta_object_id": "1999-025RZ",
        "meta_epoch": "2025-12-12T18:10:03.216288",
        "meta_mean_motion": 14.27606033,
        "meta_eccentricity": 0.00635945,
        "meta_inclination": 98.852,
        "meta_ra_of_asc_node": 68.6545,
        "meta_arg_of_pericenter": 211.4897,
        "meta_mean_anomaly": 273.6137,
        "meta_ephemeris_type": 0,
        "meta_classification_type": "U",
        "meta_norad_cat_id": 30120,
        "meta_element_set_no": 999,
        "meta_rev_at_epoch": 97371,
        "meta_bstar": 0.0029496065,
        "meta_mean_motion_dot": 7.381e-05,
        "meta_mean_motion_ddot": 0,
        "tle_line1": "1 30120U 99025RZ  25346.75698167  .00007381  00000+0  29496-2 0  9990",
        "tle_line2": "2 30120  98.8520  68.6545 0063594 211.4897 273.6137 14.27606033973711"
      },
      "geometry": {
        "type": "Point",
        "coordinates": [
          -86.81813345790229,
          67.81904048481597
        ]
      }
    },
    {
      "type": "Feature",
      "properties": {
        "norad_id": 30121,
        "name": "FENGYUN 1C DEB",
        "group": "fengyun-1c-debris",
        "lat": 74.99324643916913,
        "lon": -115.36659621975154,
        "alt_km": 740.2619849318135,
        "timestamp": "2025-12-14T18:52:55.777307+00:00",
        "meta_object_name": "FENGYUN 1C DEB",
        "meta_object_id": "1999-025SA",
        "meta_epoch": "2025-12-14T00:20:03.863904",
        "meta_mean_motion": 14.40020106,
        "meta_eccentricity": 0.00312598,
        "meta_inclination": 102.1658,
        "meta_ra_of_asc_node": 9.9576,
        "meta_arg_of_pericenter": 161.9264,
        "meta_mean_anomaly": 252.8486,
        "meta_ephemeris_type": 0,
        "meta_classification_type": "U",
        "meta_norad_cat_id": 30121,
        "meta_element_set_no": 999,
        "meta_rev_at_epoch": 97558,
        "meta_bstar": 0.0022813533,
        "meta_mean_motion_dot": 7.163e-05,
        "meta_mean_motion_ddot": 0,
        "tle_line1": "1 30121U 99025SA  25348.01393361  .00007163  00000+0  22814-2 0  9995",
        "tle_line2": "2 30121 102.1658   9.9576 0031259 161.9264 252.8486 14.40020106975584"
      },
      "geometry": {
        "type": "Point",
        "coordinates": [
          -115.36659621975154,
          74.99324643916913
        ]
      }
    },
    {
      "type": "Feature",
      "properties": {
        "norad_id": 30123,
        "name": "FENGYUN 1C DEB",
        "group": "fengyun-1c-debris",
        "lat": 46.052737883686795,
        "lon": 116.07077910929577,
        "alt_km": 703.1723926865561,
        "timestamp": "2025-12-14T18:52:55.777318+00:00",
        "meta_object_name": "FENGYUN 1C DEB",
        "meta_object_id": "1999-025SC",
        "meta_epoch": "2025-12-13T18:42:15.227424",
        "meta_mean_motion": 14.25988164,
        "meta_eccentricity": 0.02306368,
        "meta_inclination": 96.9261,
        "meta_ra_of_asc_node": 288.0282,
        "meta_arg_of_pericenter": 81.6731,
        "meta_mean_anomaly": 281.0531,
        "meta_ephemeris_type": 0,
        "meta_classification_type": "U",
        "meta_norad_cat_id": 30123,
        "meta_element_set_no": 999,
        "meta_rev_at_epoch": 97262,
        "meta_bstar": 0.0019660712,
        "meta_mean_motion_dot": 6.179e-05,
        "meta_mean_motion_ddot": 0,
        "tle_line1": "1 30123U 99025SC  25347.77934291  .00006179  00000+0  19661-2 0  9994",
        "tle_line2": "2 30123  96.9261 288.0282 0230636  81.6731 281.0531 14.25988164972624"
      },
      "geometry": {
        "type": "Point",
        "coordinates": [
          116.07077910929577,
          46.052737883686795
        ]
      }
    },
    {
      "type": "Feature",
      "properties": {
        "norad_id": 30124,
        "name": "FENGYUN 1C DEB",
        "group": "fengyun-1c-debris",
        "lat": -32.20460965037382,
        "lon": 48.51302135828109,
        "alt_km": 920.2026172020887,
        "timestamp": "2025-12-14T18:52:55.777328+00:00",
        "meta_object_name": "FENGYUN 1C DEB",
        "meta_object_id": "1999-025SD",
        "meta_epoch": "2025-12-13T23:14:12.054048",
        "meta_mean_motion": 14.14236912,
        "meta_eccentricity": 0.01432686,
        "meta_inclination": 99.132,
        "meta_ra_of_asc_node": 41.8618,
        "meta_arg_of_pericenter": 102.3722,
        "meta_mean_anomaly": 21.0748,
        "meta_ephemeris_type": 0,
        "meta_classification_type": "U",
        "meta_norad_cat_id": 30124,
        "meta_element_set_no": 999,
        "meta_rev_at_epoch": 96932,
        "meta_bstar": 0.0012204787,
        "meta_mean_motion_dot": 2.526e-05,
        "meta_mean_motion_ddot": 0,
        "tle_line1": "1 30124U 99025SD  25347.96819507  .00002526  00000+0  12205-2 0  9997",
        "tle_line2": "2 30124  99.1320  41.8618 0143268 102.3722  21.0748 14.14236912969329"
      },
      "geometry": {
        "type": "Point",
        "coordinates": [
          48.51302135828109,
          -32.20460965037382
        ]
      }
    },
    {
      "type": "Feature",
      "properties": {
        "norad_id": 30125,
        "name": "FENGYUN 1C DEB",
        "group": "fengyun-1c-debris",
        "lat": -3.4704877244055314,
        "lon": -92.96247128976758,
        "alt_km": 1041.00949167608,
        "timestamp": "2025-12-14T18:52:55.777339+00:00",
        "meta_object_name": "FENGYUN 1C DEB",
        "meta_object_id": "1999-025SE",
        "meta_epoch": "2025-12-13T18:58:23.132928",
        "meta_mean_motion": 14.22661187,
        "meta_eccentricity": 0.03421683,
        "meta_inclination": 98.7233,
        "meta_ra_of_asc_node": 86.5826,
        "meta_arg_of_pericenter": 341.1359,
        "meta_mean_anomaly": 144.6636,
        "meta_ephemeris_type": 0,
        "meta_classification_type": "U",
        "meta_norad_cat_id": 30125,
        "meta_element_set_no": 999,
        "meta_rev_at_epoch": 96936,
        "meta_bstar": 0.00089346584,
        "meta_mean_motion_dot": 3.6e-05,
        "meta_mean_motion_ddot": 0,
        "tle_line1": "1 30125U 99025SE  25347.79054552  .00003600  00000+0  89347-3 0  9996",
        "tle_line2": "2 30125  98.7233  86.5826 0342168 341.1359 144.6636 14.22661187969361"
      },
      "geometry": {
        "type": "Point",
        "coordinates": [
          -92.96247128976758,
          -3.4704877244055314
        ]
      }
    }
  ]
}